SBSS (USA 216)          
1 37168U 10048A   26068.88624904  .00004946  00000+0  24191-3 0  9993
2 37168  97.7474 312.3885 0082264 184.8326 306.5835 15.15724210837421
STARLINK-32144          
1 60269U 24131Q   26068.39520677 -.00000660  00000+0 -10181-4 0  9993
2 60269  53.1601  53.7883 0001141  96.8101 263.3030 15.30191179 91720
